ONEWEB-0020             
1 45133U 20008C   24338.50578876 -.00000689  00000+0 -20104-2 0  9995
2 45133  87.8881 147.9206 0001331  95.5012 264.6267 13.10372410234911
ONEWEB-0021             
1 45134U 20008D   24338.52074048 -.00000202  00000+0 -61504-3 0  9991
2 45134  87.8889 147.9414 0001509  85.5566 274.5733 13.10375511235229
ONEWEB-0023             
1 45136U 20008F   24338.53321817  .00000373  00000+0  10325-2 0  9994
2 45136  87.8892 147.9271 0001707  97.5484 262.5837 13.10376502234657
ONEWEB-0024             
1 45137U 20008G   24338.50412849 -.00000618  00000+0 -18071-2 0  9998
2 45137  87.8875 147.9027 0001452  88.8953 271.2341 13.10373778234816
ONEWEB-0025             
1 45138U 20008H   24338.52241797 -.00000099  00000+0 -32076-3 0  9998
2 45138  87.8880 147.9000 0001985  81.5575 278.5777 13.10378300235141
ONEWEB-0026             
1 45139U 20008J   24338.52988042 -.00000235  00000+0 -70006-3 0  9997
2 45139  87.8889 132.7738 0001341  99.6774 260.4505 13.11413727237626
ONEWEB-0028             
1 45140U 20008K   24338.48497563  .00000130  00000+0  33010-3 0  9993
2 45140  87.8887 132.8156 0002035  85.8151 274.3210 13.11418114235134
ONEWEB-0032             
1 45141U 20008L   24338.53735333  .00000580  00000+0  16265-2 0  9991
2 45141  87.8881 147.9456 0001662  87.0606 273.0711 13.10374634234872
